STARLINK-31662          
1 59584U 24076W   26068.24697533  .00007869  00000+0  29564-3 0  9999
2 59584  43.0010  11.6107 0001342 243.6709 116.4005 15.27527147106430
OTTER                   
1 62623U 25009Q   26068.72300813  .00012198  00000+0  45151-3 0  9990
2 62623  97.4065 151.3812 0003573 310.7710  49.3219 15.27809545 63722
